{"type":"FeatureCollection","attribution":"Natural Earth, public domain","detail":"Natural Earth 1:10m land and rivers, clipped for offline demo use","features":[{"type":"Feature","properties":{"layer":"land"},"geometry":{"type":"Polygon","coordinates":[[[109.89405358200003,-1.0985653629999206],[109.86963951900003,-1.086195570999962],[109.85906009200005,-1.085056247999944],[109.83545983200003,-1.086195570999962],[109.82300866000003,-1.075290622999944],[109.80990644600007,-1.045179945999962],[109.78565514400003,-1.0329729149999594],[109.77515709700003,-1.0187313779999272],[109.75977623800003,-0.9906552059999285],[109.74048912900003,-0.9675432269999078],[109.73414147200003,-0.9540341129999206],[109.73178144600007,-0.9323055969999245],[109.73487389400003,-0.9176571589999298],[109.74219811300003,-0.9081356749999259],[109.75131269600007,-0.8995907529999272],[109.75977623800003,-0.8876278629999206],[109.76514733200003,-0.8742815079999104],[109.76351972700007,-0.8708635399999594],[109.73487389400003,-0.8790015599999492],[109.72437584700003,-0.8887671849999492],[109.71949303500003,-0.9040666649999594],[109.71810957100007,-0.9258765599999492],[109.71412194100003,-0.9473609349999492],[109.70386803500003,-0.9606259089999298],[109.67725670700003,-0.9838192689999232],[109.64795983200003,-0.9674618469999245],[109.62989342500003,-0.9519182269999078],[109.62322024800005,-0.9515927059999285],[109.61622155000003,-0.9546851539999466],[109.60523522200003,-0.9566382789999466],[109.59864342500003,-0.9478492169999413],[109.58171634200005,-0.8944637999999259],[109.55982506600003,-0.8773739559999285],[109.52564537900003,-0.8623999979999439],[109.48878014400003,-0.8516578099999492],[109.43824303500003,-0.8456356749999259],[109.42798912900003,-0.8466122379999206],[109.42066491000003,-0.8501929669999413],[109.41382897200003,-0.8601213519999078],[109.41586347700007,-0.8669572899999594],[109.42107181100005,-0.8737932269999078],[109.42408287900003,-0.8842098939999232],[109.41895592500003,-0.9035783829999104],[109.40650475400003,-0.9113908829999104],[109.39079837300005,-0.9118791649999594],[109.37623131600003,-0.9087867169999413],[109.33521569100003,-0.8890927059999285],[109.32837975400003,-0.8842098939999232],[109.32048587300005,-0.8833960919999413],[109.28386478000004,-0.8632137999999259],[109.27320397200003,-0.8536109349999492],[109.24529056100005,-0.6958960919999413],[109.25098717500003,-0.6776669249999259],[109.26254316500007,-0.6674130189999232],[109.27857506600003,-0.6690406229999439],[109.29737389400003,-0.6856421849999492],[109.31381269600007,-0.6950009089999298],[109.38306725400003,-0.6958960919999413],[109.39820397200003,-0.7030575499999259],[109.42920983200003,-0.7257626279999272],[109.45582116000003,-0.7321102839999298],[109.46859785200007,-0.7370744769999078],[109.47868899800005,-0.7369117169999413],[109.50171959700003,-0.7310523419999413],[109.50961347700007,-0.7250302059999285],[109.50652103000004,-0.7164039039999466],[109.49732506600003,-0.7136369769999078],[109.47152754000007,-0.7165666649999594],[109.46159915500004,-0.7129859349999492],[109.44361412900003,-0.6874325499999259],[109.43458092500003,-0.6788062479999439],[109.41293379000007,-0.6639950499999259],[109.38990319100003,-0.6548804669999413],[109.37916100400003,-0.6529273419999413],[109.36255944100003,-0.6519507789999466],[109.35515384200005,-0.6481259089999298],[109.35515384200005,-0.6412899719999245],[109.35962975400003,-0.6397437479999439],[109.36882571700005,-0.6338843729999439],[109.36475670700003,-0.6301408829999104],[109.35962975400003,-0.6236304669999413],[109.35515384200005,-0.6202124979999439],[109.35515384200005,-0.6139462219999245],[109.37322024800005,-0.6141903629999206],[109.40626061300003,-0.6202124979999439],[109.42408287900003,-0.6202124979999439],[109.42408287900003,-0.6139462219999245],[109.40064537900003,-0.5973446589999298],[109.37452233200003,-0.5873348939999232],[109.34400475400003,-0.5837541649999594],[109.27759850400003,-0.586195570999962],[109.26238040500004,-0.5924618469999245],[109.25660241000003,-0.5884742169999413],[109.25033613400007,-0.582289320999962],[109.23536217500003,-0.5763485659999219],[109.23113040500004,-0.5700009089999298],[109.22803795700003,-0.5630835919999413],[109.22478274800005,-0.5586890599999492],[109.21509850400003,-0.5533993469999245],[109.21176191500007,-0.5521786439999232],[109.19752037900003,-0.5518531229999439],[109.18734785200007,-0.552992445999962],[109.17969811300003,-0.5560848939999232],[109.17139733200003,-0.5563290339999298],[109.15992272200003,-0.5487606749999259],[109.13941491000003,-0.5285783829999104],[109.13013756600003,-0.5157203099999492],[109.12330162900003,-0.49968840899992983],[109.10279381600003,-0.40992603999995936],[109.10059655000003,-0.3697242169999413],[109.10254967500003,-0.36109791499995936],[109.11247806100005,-0.3597958309999285],[109.13599694100003,-0.36003997199992455],[109.10320071700005,-0.31414153399992983],[109.09083092500003,-0.2872046849999492],[109.10132897200003,-0.2638485659999219],[109.10132897200003,-0.25758228999995936],[109.08936608200003,-0.25302499799994393],[109.07642662900003,-0.2505835919999413],[109.06739342500003,-0.25514088299991045],[109.06706790500004,-0.27125416499995936],[109.05030358200003,-0.2618954409999219],[109.04623457100007,-0.24586353999995936],[109.05095462300005,-0.2290992169999413],[109.06031334700003,-0.21672942499992587],[109.07032311300003,-0.21184661299992058],[109.08611087300005,-0.2074520809999285],[109.11866295700003,-0.20305754999992587],[109.14665774800005,-0.2052548159999219],[109.17603600400003,-0.21200937299994393],[109.20167076900003,-0.22275155999994922],[109.21851647200003,-0.23723723799992058],[109.22478274800005,-0.23723723799992058],[109.21876061300003,-0.22161223799992058],[109.19857832100007,-0.20086028399992983],[109.19060306100005,-0.18873463299991045],[109.18848717500003,-0.17734140399994658],[109.19060306100005,-0.1373023419999413],[109.18685957100007,-0.0822079409999219],[109.17969811300003,-0.05547454199995627],[109.16041100400003,-0.023695570999962],[109.15739993600005,-0.00929127399990648],[109.15650475400003,0.020086981000076776],[109.16098066500007,0.033921617000089554],[109.17212975400003,0.03416575700003932],[109.19752037900003,0.023504950000074132],[109.30046634200005,0.010484117000089554],[109.28052819100003,0.027492580000057387],[109.23666425900007,0.05727773600006003],[109.17693118600005,0.10761139500004901],[109.16675866000003,0.11229075700003932],[109.10230553500003,0.2431094420000477],[109.04664147200003,0.2870547550000424],[109.03321373800003,0.2933617210000534],[109.01612389400003,0.2968203800000424],[108.95313561300003,0.3017438820000393],[108.92872155000003,0.31509023600006003],[108.92090905000003,0.34027741100004505],[108.93116295700003,0.37978750200005607],[108.9391324556559,0.4],[110.4,0.4],[110.4,-1.1],[109.8985368221662,-1.1],[109.89405358200003,-1.0985653629999206]]]}},{"type":"Feature","properties":{"layer":"land"},"geometry":{"type":"Polygon","coordinates":[[[109.45232181100005,-1.0040015599999492],[109.45923912900003,-0.9854468729999439],[109.47543379000007,-0.9769833309999285],[109.49122155000003,-0.9791805969999245],[109.52515709700003,-0.9884579409999219],[109.54420006600003,-0.9906552059999285],[109.55616295700003,-0.9874813779999272],[109.57715905000003,-0.9733212219999245],[109.58790123800003,-0.9703101539999466],[109.60629316500007,-0.9747046849999492],[109.63965905000003,-0.9962704409999219],[109.65674889400003,-1.0036760399999594],[109.67457116000003,-1.0035946589999298],[109.68620853000004,-0.9968401019999078],[109.69507897200003,-0.988539320999962],[109.70460045700003,-0.9838192689999232],[109.72348066500007,-0.9870744769999078],[109.73926842500003,-0.9987118469999245],[109.75131269600007,-1.0149065079999104],[109.75977623800003,-1.0316708309999285],[109.75977623800003,-1.1],[109.44777302018625,-1.1],[109.45232181100005,-1.0040015599999492]]]}},{"type":"Feature","properties":{"layer":"rivers"},"geometry":{"type":"LineString","coordinates":[[110.4,-0.09246697957451973],[110.388916015625,-0.09202239375588306],[110.369384765625,-0.08689544063088306],[110.359375,-0.08577239375588874],[110.34677734375003,-0.08757903438088022],[110.326171875,-0.09641692500588306],[110.314697265625,-0.09934661250588306],[110.28955078125,-0.09504973750588874],[110.27587890625,-0.08074309688088022],[110.26699218750002,-0.06560637813088022],[110.25634765625,-0.058477471880891585],[110.24619140625003,-0.056280206255891585],[110.22705078125,-0.046929620318380216],[110.21542968750003,-0.044732354693380216],[110.08056640625,-0.043633721880880216],[110.036376953125,-0.049371026568380216],[110.0,-0.06526458125588874],[109.970458984375,-0.10369231563088022],[109.94570312500002,-0.1938778625058859],[109.91748046875,-0.23040130000588022],[109.86806640625002,-0.26008880000588874],[109.859375,-0.2628720031308802],[109.84511718750002,-0.2638485656308802],[109.787841796875,-0.25325286250588874],[109.7734375,-0.25764739375588874],[109.74609375,-0.30208098750588874],[109.74277343750003,-0.3175595031308802],[109.734619140625,-0.3212216125058802],[109.72451171875002,-0.3170712218808802],[109.71503906250001,-0.30891692500588874],[109.70009765625002,-0.3119442687558802],[109.65146484375003,-0.3505184875058802],[109.6328125,-0.3600399718808802],[109.61367187500002,-0.36116301875588874],[109.60830078125002,-0.3600399718808802],[109.60429687499999,-0.3556454406308802],[109.603515625,-0.3490536437558802],[109.603515625,-0.34309661250588874],[109.60205078125,-0.33967864375588874],[109.58203125,-0.3341610656308802],[109.57871093750003,-0.3402645812558802],[109.58017578125003,-0.3511044250058859],[109.57421875,-0.3600399718808802],[109.56103515625,-0.36165130000588874],[109.55283203125003,-0.3558895812558802],[109.54501953125003,-0.3488095031308802],[109.533935546875,-0.34651458125588874],[109.526123046875,-0.3511044250058859],[109.52158203125003,-0.3589169250058859],[109.5146484375,-0.3657528625058859],[109.4990234375,-0.3668759093808802],[109.503662109375,-0.37727630000588874],[109.50644531250003,-0.38118255000588874],[109.48837890625003,-0.3846981750058802],[109.468017578125,-0.3742001281308802],[109.451416015625,-0.3558895812558802],[109.44443359375003,-0.3358700500058802],[109.43740234375002,-0.3248837218808802],[109.389892578125,-0.2911923156308802],[109.374755859375,-0.2768856750058859],[109.36660156250002,-0.27278411250588874],[109.35205078125,-0.27131926875588874],[109.339111328125,-0.2723934875058802],[109.31640625,-0.2770321593808802],[109.303955078125,-0.27815520625588874],[109.27890625000003,-0.2729794250058859],[109.23964843750002,-0.2471005187558859],[109.21845703125001,-0.23723723750588022]]}}]}